#dP2022  4 26  6  0  0.00000000      96 __u+U ITR00 EXT  IAC
## 2207 194400.00000000   900.00000000 59695 0.2500000000000
+  117   C06C07C08C09C10C11C12C13C14C16C19C20C21C22C23C24C25
+        C26C27C28C29C30C32C33C34C35C36C37C38C39C40C41C42C43
+        C44C45C46E01E02E03E04E05E07E08E09E10E11E12E13E14E15
+        E18E19E21E24E25E26E27E30E31E33E34E36G01G02G03G04G05
+        G06G07G08G09G10G11G12G13G14G15G16G17G18G19G20G21G22
+        G23G24G25G26G27G28G29G30G31G32J02J03R01R02R03R04R05
+        R07R08R09R11R12R13R14R15R17R18R19R20R21R22R24  0  0
++        10  9  9 10  8 10 10  9  9 10 10  9 10  9  9  9  9
++         8 10  9 10 10  9  8  9  8 10  9  9 10 11  9  8  8
++         8  9  8  8  8  9  8  9  9  8  8  9  9  8  8  8  8
++         8  9  8  9  9  9  8  8  8  8  9  9  8  8  8  9  9
++         9  9  8  8  8  9  8  8  9  8  8  9  8  9  8  8  9
++         9  9  8  8  8  9  8  8  9  9  9 10  8  9  9  9  9
++         9  9  8  8  8  9  9 10  8  9  9 10 10  9 10  0  0
%c M  cc GPS ccc cccc cccc cccc cccc ccccc ccccc ccccc ccccc
%c cc cc ccc ccc cccc cccc cccc cccc ccccc ccccc ccccc ccccc
%f  0.0000000  0.000000000  0.00000000000  0.000000000000000
%f  0.0000000  0.000000000  0.00000000000  0.000000000000000
%i    0    0    0    0      0      0      0      0         0
%i    0    0    0    0      0      0      0      0         0
/* IAC                                ULTRA-RAPID PREDICTION
/* S/V CLOCKS ARE ALIGNED TO GNSS TIME                      
/* G:C1WC2W R:C1PC2P E:C1XC5X C:C2IC6I J:C1CC2S             
/* PCV:IGS14_2196 OL/AL:FES2004  NONE     YN ORB:CoN CLK:CoN
*  2022 04 26 14 45  0.00000000
PC06 -10805.405778  40686.099296   3986.645711   -131.847448
PC07  -5120.127655  27904.252994 -31166.596528    -89.464997
PC08 -19186.295056  24669.410542  28242.717747    280.719076
PC09  -5900.536031  41605.367680  -5513.302623   -732.125185
PC10   3454.484597  30648.985832 -28315.568354    134.843086
PC11   8367.078548 -25959.785700   6023.493430    315.578364
PC12  15229.680730 -12165.505804  20003.514028   -624.117771
PC13  -9148.343398  25564.370883  32300.146071    -49.747347
PC14   3794.387920 -16456.292502 -22198.798445    463.387348
PC16 -12236.478278  39931.360902   6899.499767    124.383527
PC19   6061.258677  20382.383396  18091.122447    875.019145
PC20 -11523.356590  11013.225420  22928.071084   -891.794603
PC21  23290.050774   5626.393802 -14261.329788   -182.203510
PC22  20842.215714  18358.233149   2538.628207   -971.531153
PC23 -15071.799697 -10284.116116  21116.719082   -931.075174
PC24  22372.240145 -14875.090022   7580.293521   -957.294917
PC25   3787.534650 -18001.665060  20981.866995   -745.375428
PC26  26194.414270  -4679.030594  -8478.522137    746.300238
PC27 -16174.176948   2023.940276 -22675.532598    713.877581
PC28 -10429.474259 -17804.437424 -18788.838572     59.797592
PC29   -712.772136  27682.030557   3472.518163    546.581275
PC30 -12177.533067  20838.410240 -14039.677897    497.560874
PC32 -23376.429309  -5459.715058  14263.689706   -962.687682
PC33  -6153.012953 -20352.109808 -18072.854573   -966.424944
PC34  11775.516028 -21549.757011  13215.829472   -416.928058
PC35  10613.735764  18331.687451  18174.617439    246.581299
PC36  -4762.009170  17980.477840 -20780.529771   -963.831093
PC37 -26034.604464   3194.661819   9511.149277   -918.617303
PC38 -25001.718330  25884.976090  21886.570549    227.893214
PC39 -13568.944164  37759.594905  13270.773410     34.954753
PC40  -8442.438552  22274.553239 -34790.662825    264.077324
PC41 -20726.540911 -18453.321008  -2901.171576   -966.241865
PC42  12385.538543 -10293.024570 -22738.458269   -957.554060
PC43   1235.849860 -27721.793296  -2827.799681   -927.661121
PC44  16197.851961  -2289.923742  22590.253208    640.307059
PC45  15307.563171   9984.809294 -21093.786546    741.437714
PC46 -21394.304240  15473.710633  -8978.044068   -292.618022
PE01  26578.121699   9581.020533  -8844.787203   -623.845383
PE02 -26650.451426  -9480.603546   8685.558580    295.327129
PE03 -18963.821177 -16309.651251  15843.274117   -552.052615
PE04  16634.890807  -4306.692544 -24089.817675  -1014.954558
PE05 -10175.732271 -27732.586022  -1890.059798   -187.218272
PE07  -4418.661692  22858.061076  18286.058149   -662.491965
PE08 -16376.173216   4637.972985  24225.090093   -518.913585
PE09   4098.440054 -22948.739760 -18239.883805   -497.628474
PE10  20180.201232 -20883.396388   5709.993491   -509.161219
PE11  15076.457808 -25033.576317  -4648.869411   3847.189395
PE12  21967.682490 -13471.886592  14537.248551   4643.579069
PE13 -15481.639674  24925.371014   3956.178600    428.286995
PE14 -20880.878138 -13092.902488 -21222.880917  -1827.763125
PE15 -21907.333103  13447.354704 -14685.624617    749.323931
PE18  15299.026538   6660.699300  16481.307997  -1519.160571
PE19  18329.479950  18517.028303 -14037.868028  -3663.206408
PE21  11224.026385  16467.267362 -21892.356704   -730.708100
PE24  12901.400381 -13924.401248  22701.478919   -582.179477
PE25 -10924.028459 -16506.995415  22007.286467   -571.787829
PE26    879.511704  21233.101414  20607.408970  -1075.211146
PE27 -11513.602820  14395.174915 -23158.517397   -285.076775
PE30 -27713.023317   3128.229337  -9909.296081   -462.062614
PE31  27293.937933  -3871.379643  10790.101210   -495.675957
PE33  15376.040945   5927.097582  24588.334781   -457.233592
PE34 -15524.787215  -5691.327412 -24559.771883   -514.031205
PE36     -1.103917 -21677.467934 -20149.238612   -365.160820
PG01  12006.845700 -21381.635756 -10028.536186    376.256055
PG02 -20294.897056  13473.038956 -10102.015771   -653.246255
PG03   4972.819251 -14185.462224 -21998.589765   -221.881128
PG04   2362.270376 -23811.322824 -11424.466416   -172.643328
PG05 -20319.694210   6888.527928  15590.553423    -79.694536
PG06 -16908.232446  -1961.174318 -20348.931410    280.880831
PG07  -3041.500074 -17366.760402  20114.617332    321.169208
PG08   8224.260333 -17014.544507  18479.224727    -65.523701
PG09  -6624.254963 -25658.659735  -1568.780414   -341.101809
PG10  22353.824148  11773.683632   8808.078905   -392.653104
PG11 -22071.712227  10776.609611 -10089.076639    -33.529880
PG12  -9906.457270  12327.747772 -21588.176713   -206.282195
PG13 -13495.346826   8311.149386  21133.970294    300.980222
PG14 -21136.946274 -13163.933685   9356.408849   -105.060973
PG15  -6164.572912  18603.157761  17376.096633    -65.928271
PG16  23547.383405   -773.217430  12428.641496   -495.422499
PG17 -13364.053397 -18010.737675 -13756.006821    605.206035
PG18   1606.560190  17494.767418  19878.409528    185.729704
PG19 -14980.585811 -11408.657236 -19074.784026    149.467360
PG20 -25484.898360   2471.696883   6584.754539    515.647722
PG21  17750.226269 -19205.630939   2020.674884    160.739204
PG22  15512.844178   8376.421327 -19508.554806    249.516847
PG23  13503.887482  15137.537362  17189.018333    -17.774524
PG24 -13333.678590  22161.467399  -5284.379818    250.962089
PG25   5852.053613  16310.598566 -20489.157431    317.023431
PG26  26361.240474   4227.749774   1240.626762    201.431112
PG27  14191.566764  -4415.777491  21795.966924    191.714169
PG28 -24518.690707  -9822.347058   1533.895650    366.990792
PG29   3782.261475  26164.624543  -2237.083230   -507.292568
PG30 -11303.824800 -11012.495553  21444.875349   -525.465867
PG31  19024.939346      4.573753 -18847.162586   -175.087880
PG32  15523.357386  15372.626799 -15090.072373   -113.767769
PJ02 -30963.761193  16402.175027 -18893.744663     -3.024124
PJ03 -22922.856836  31846.212359 -10859.412165     -1.766128
PR01 -18997.794964 -11623.883013  12458.305057      8.138335
PR02 -10048.481274   4947.105505  22961.932174    516.645052
PR03   3890.986712  17448.114621  18270.390189     55.598549
PR04  15404.941223  20029.819657   3552.162505    138.602296
PR05  18440.451537  11725.340502 -13159.099865     91.829040
PR07  -4470.807588 -17729.990156 -17719.169103     34.330739
PR08 -15571.489266 -19914.316783  -3254.666533    -64.801688
PR09  22032.789501  -9396.050642   8678.594684     51.865738
PR11 -10448.542645  -8227.644547  21777.662739     40.315126
PR12 -23810.596061    585.790737   9129.304125     18.123206
PR13 -22746.027120   8768.386786  -7526.814038    -21.451284
PR14  -7672.870207  12097.825875 -21100.468509     76.934871
PR15  11191.551220   8140.384588 -21410.476414     96.555749
PR17  -7028.851576  24371.463140   2544.122356    520.870343
PR18   1899.388236  18485.503581  17514.015248    114.841606
PR19   9427.150169   4281.181528  23307.764735   -186.833931
PR20  13123.387885 -15886.594416  15005.291288    -69.401031
PR21   6457.800922 -24354.769817  -4047.259637   -296.426453
PR22  -2301.797431 -17742.562477 -18150.533847   -179.360397
PR24 -12943.172106  16688.089084 -14288.331212     90.904821
EOF
